GLOBALSTAR M063         
1 26081U 00008A   24235.75990576 -.00000089  00000+0 -97361-4 0  9997
2 26081  51.9938 177.5143 0004618  95.6067 294.4046 11.86159892122165
GLOBALSTAR M062         
1 26082U 00008B   24236.22867758 -.00000050  00000+0  34297-3 0  9991
2 26082  51.9823 251.9762 0007110 195.5675 243.9033 12.43443670122055
GLOBALSTAR M060         
1 26083U 00008C   24235.92815683 -.00000173  00000+0 -81259-3 0  9995
2 26083  52.0010 170.6693 0003009 243.9094 201.8580 12.17638212116032
GLOBALSTAR M064         
1 26084U 00008D   24236.17753950 -.00000064  00000+0  27363-3 0  9996
2 26084  52.0015 278.7605 0001607 195.5701 164.5082 11.88521420131779
GLOBALSTAR M065         
1 31571U 07020A   24235.89328372 -.00000146  00000+0 -23500-3 0  9999
2 31571  51.9901  54.1561 0010289  10.7903 136.6555 12.61974561795741
GLOBALSTAR M069         
1 31573U 07020C   24235.79312179 -.00000070  00000+0  19047-3 0  9994
2 31573  51.9975  10.2059 0000908 115.2136  32.3238 12.62246539796867
GLOBALSTAR M072         
1 31574U 07020D   24235.91784546 -.00000071  00000+0  18429-3 0  9994
2 31574  52.0076 105.8252 0001107  55.2769 317.9855 12.62262062795152
GLOBALSTAR M071         
1 31576U 07020F   24235.71108647 -.00000069  00000+0  19331-3 0  9996
2 31576  52.0093  15.6723 0001246 135.4436 239.5738 12.62273022458041
